ORBCOMM FM37            
1 33064U 08031E   24164.49046120  .00002309  00000+0  35606-3 0  9997
2 33064  48.4410 297.1620 0006644 236.8452 160.0576 14.76650725859679
ORBCOMM FM40            
1 33065U 08031F   24164.52734183  .00003199  00000+0  46677-3 0  9993
2 33065  48.4427 286.0370 0007995 245.4811 167.3719 14.78023285859847
ORBCOMM FM106           
1 40088U 14040C   24164.22160588  .00001485  00000+0  29346-3 0  9992
2 40088  47.0592 173.4530 0017035 151.2035 208.9799 14.67175415529107
ORBCOMM FM111           
1 40089U 14040D   24164.19357954  .00003786  00000+0  49305-3 0  9997
2 40089  47.0045  70.7214 0033265 225.7704 134.0459 14.82032519535262
ORBCOMM FM104           
1 40090U 14040E   24164.26318102  .00001063  00000+0  28149-3 0  9998
2 40090  47.0069 351.8293 0017288 313.4176  46.5269 14.55222206526715
